IRIDIUM 138             
1 43071U 17083B   26169.71184192  .00000082  00000+0  22067-4 0  9991
2 43071  86.3980 321.0734 0002311  86.9936 273.1524 14.34217826444351
IRIDIUM 116             
1 43072U 17083C   26169.68012889 -.00000006  00000+0 -90508-5 0  9995
2 43072  86.3960 321.3771 0001896  99.8851 260.2559 14.34217494444389
IRIDIUM 130             
1 43073U 17083D   26169.36933838  .00000153  00000+0  47722-4 0  9997
2 43073  86.3973 321.7822 0001946  92.8921 267.2497 14.34219243444283
IRIDIUM 151             
1 43074U 17083E   26169.69281516 -.00000008  00000+0 -99528-5 0  9996
2 43074  86.3962 321.4296 0002053  93.4528 266.6903 14.34217278444353
IRIDIUM 134             
1 43075U 17083F   26169.66110228 -.00000050  00000+0 -24927-4 0  9992
2 43075  86.3963 321.4509 0002004  91.9399 268.2026 14.34216953444316
IRIDIUM 137             
1 43076U 17083G   26169.39471250  .00000010  00000+0 -35009-5 0  9997
2 43076  86.3965 321.6551 0002199 104.2721 255.8719 14.34217627444343
IRIDIUM 141             
1 43077U 17083H   26169.38836970  .00000021  00000+0  52348-6 0  9998
2 43077  86.3964 321.4880 0002229  90.9844 269.1607 14.34217760444349
IRIDIUM 153             
1 43078U 17083J   26169.61962325  .00000036  00000+0  58084-5 0  9997
2 43078  86.3961 289.8717 0002235  89.7167 270.4285 14.34217675445482
IRIDIUM 131             
1 43079U 17083K   26169.65475782  .00000137  00000+0  42029-4 0  9991
2 43079  86.3970 321.5627 0002215  91.9978 268.1472 14.34217601444312
IRIDIUM 144             
1 43249U 18030A   26169.62596542  .00000162  00000+0  50885-4 0  9995
2 43249  86.3960 289.7980 0002113  97.4240 262.7196 14.34217358430347
IRIDIUM 149             
1 43250U 18030B   26169.63230853  .00000064  00000+0  15640-4 0  9999
2 43250  86.3958 289.7625 0002266  93.6560 266.4894 14.34217759430367
IRIDIUM 157             
1 43251U 18030C   26169.58156821 -.00000025  00000+0 -16121-4 0  9990
2 43251  86.3957 289.8372 0002097  93.9245 266.2191 14.34217157430339
IRIDIUM 140             
1 43252U 18030D   26169.60059536  .00000020  00000+0 -16415-7 0  9992
2 43252  86.3955 289.8417 0002026  94.1998 265.9430 14.34217514430393
IRIDIUM 145             
1 43253U 18030E   26169.30883611  .00000029  00000+0  34154-5 0  9995
2 43253  86.3959 289.9358 0002023 101.4764 258.6659 14.34217445430286
IRIDIUM 146             
1 43254U 18030F   26169.56887897  .00000153  00000+0  47634-4 0  9998
2 43254  86.3960 289.8392 0002135  96.9056 263.2383 14.34219207430332
IRIDIUM 148             
1 43255U 18030G   26169.60693837  .00000002  00000+0 -62158-5 0  9996
2 43255  86.3958 289.8668 0002152  96.4970 263.6471 14.34217451430370
IRIDIUM 142             
1 43256U 18030H   26169.57522544  .00000002  00000+0 -62318-5 0  9997
2 43256  86.3955 289.7689 0002024  99.1249 261.0176 14.34217219430339
IRIDIUM 150             
1 43257U 18030J   26169.26443779  .00000049  00000+0  10474-4 0  9991
2 43257  86.3960 290.0151 0002154  93.8168 266.3274 14.34217786430314
IRIDIUM 143             
1 43258U 18030K   26169.59425272  .00000035  00000+0  53872-5 0  9991
2 43258  86.3960 289.9699 0001991  97.1034 263.0388 14.34217457430298
IRIDIUM 161             
1 43478U 18047C   26169.69427440  .00000288  00000+0  79488-4 0  9993
2 43478  86.4481  87.8410 0002575  83.9799 276.1695 14.43279231425352
IRIDIUM 152             
1 43479U 18047D   26169.28789770  .00000239  00000+0  78108-4 0  9990
2 43479  86.3957  87.8721 0002343  82.9103 277.2359 14.34217583422646
IRIDIUM 147             
1 43480U 18047E   26169.71285089  .00000036  00000+0  57390-5 0  9990
2 43480  86.3958  87.6997 0002165  86.4201 273.7242 14.34217574422701
IRIDIUM 110             
1 43481U 18047F   26169.50988855  .00000162  00000+0  50844-4 0  9995
2 43481  86.3960  87.8764 0002566  81.6924 278.4563 14.34217869422663
IRIDIUM 162             
1 43482U 18047G   26169.47998580  .00000276  00000+0  76125-4 0  9994
2 43482  86.4481  87.8218 0002260  82.4012 277.7446 14.43282353425312
IRIDIUM 160             
1 43569U 18061A   26169.38595463  .00000000  00000+0 -72364-5 0  9997
2 43569  86.3959  56.2961 0002157  85.5069 274.6373 14.34217547413543
IRIDIUM 166             
1 43570U 18061B   26169.69039902  .00000003  00000+0 -59144-5 0  9998
2 43570  86.3958  56.1192 0002002  86.5927 273.5498 14.34217511413617
IRIDIUM 158             
1 43571U 18061C   26169.17030620  .00000002  00000+0 -63235-5 0  9995
2 43571  86.3959  56.3467 0002100  82.7094 277.4341 14.34217367413505
IRIDIUM 165             
1 43572U 18061D   26169.68405635  .00000051  00000+0  11229-4 0  9992
2 43572  86.3961  56.1784 0002068  87.2122 272.9311 14.34217405413605
IRIDIUM 155             
1 43573U 18061E   26169.64600066  .00000052  00000+0  11439-4 0  9998
2 43573  86.3957  56.0634 0002111  83.4109 276.7327 14.34217877413563
IRIDIUM 154             
1 43574U 18061F   26169.69674014  .00000256  00000+0  84263-4 0  9999
2 43574  86.3959  56.1757 0002153  88.4793 271.6650 14.34217367413627
IRIDIUM 163             
1 43575U 18061G   26169.60794353  .00000043  00000+0  84270-5 0  9993
2 43575  86.3958  56.1281 0002234  83.7013 276.4437 14.34216514413586
